{
  "type": "FeatureCollection",
  "features": [
    {
      "type": "Feature",
      "properties": {
        "norad_id": 66572,
        "name": "STARLINK-35870",
        "group": "last-30-days",
        "lat": -23.16953264464771,
        "lon": -0.7005482407818657,
        "alt_km": 394.28856241132144,
        "timestamp": "2025-12-07T11:27:48.740970+00:00",
        "meta_object_name": "STARLINK-35870",
        "meta_object_id": "2025-268R",
        "meta_epoch": "2025-12-06T22:00:01.999584",
        "meta_mean_motion": 15.60632801,
        "meta_eccentricity": 0.00016243,
        "meta_inclination": 42.9997,
        "meta_ra_of_asc_node": 155.2846,
        "meta_arg_of_pericenter": 270.0087,
        "meta_mean_anomaly": 32.1868,
        "meta_ephemeris_type": 0,
        "meta_classification_type": "U",
        "meta_norad_cat_id": 66572,
        "meta_element_set_no": 999,
        "meta_rev_at_epoch": 373,
        "meta_bstar": -0.025890811,
        "meta_mean_motion_dot": -0.01942838,
        "meta_mean_motion_ddot": 0,
        "tle_line1": "1 66572U 25268R   25340.91668981 -.01942838  00000+0 -25891-1 0  9993",
        "tle_line2": "2 66572  42.9997 155.2846 0001624 270.0087  32.1868 15.60632801  3739"
      },
      "geometry": {
        "type": "Point",
        "coordinates": [
          -0.7005482407818657,
          -23.16953264464771
        ]
      }
    },
    {
      "type": "Feature",
      "properties": {
        "norad_id": 66573,
        "name": "STARLINK-35650",
        "group": "last-30-days",
        "lat": -24.3187107698141,
        "lon": 0.9632252384047112,
        "alt_km": 394.3743246572676,
        "timestamp": "2025-12-07T11:27:48.740980+00:00",
        "meta_object_name": "STARLINK-35650",
        "meta_object_id": "2025-268S",
        "meta_epoch": "2025-12-06T22:00:01.999584",
        "meta_mean_motion": 15.60632939,
        "meta_eccentricity": 0.00017328,
        "meta_inclination": 42.9999,
        "meta_ra_of_asc_node": 155.2787,
        "meta_arg_of_pericenter": 272.7835,
        "meta_mean_anomaly": 31.3294,
        "meta_ephemeris_type": 0,
        "meta_classification_type": "U",
        "meta_norad_cat_id": 66573,
        "meta_element_set_no": 999,
        "meta_rev_at_epoch": 373,
        "meta_bstar": -0.025917891,
        "meta_mean_motion_dot": -0.01944714,
        "meta_mean_motion_ddot": 0,
        "tle_line1": "1 66573U 25268S   25340.91668981 -.01944714  00000+0 -25918-1 0  9999",
        "tle_line2": "2 66573  42.9999 155.2787 0001732 272.7835  31.3294 15.60632939  3732"
      },
      "geometry": {
        "type": "Point",
        "coordinates": [
          0.9632252384047112,
          -24.3187107698141
        ]
      }
    },
    {
      "type": "Feature",
      "properties": {
        "norad_id": 66574,
        "name": "STARLINK-35812",
        "group": "last-30-days",
        "lat": -25.453275677594007,
        "lon": 2.664285195602288,
        "alt_km": 394.44719367707785,
        "timestamp": "2025-12-07T11:27:48.740990+00:00",
        "meta_object_name": "STARLINK-35812",
        "meta_object_id": "2025-268T",
        "meta_epoch": "2025-12-06T22:00:01.999584",
        "meta_mean_motion": 15.60627921,
        "meta_eccentricity": 0.00016038,
        "meta_inclination": 42.9999,
        "meta_ra_of_asc_node": 155.2735,
        "meta_arg_of_pericenter": 272.4517,
        "meta_mean_anomaly": 33.5814,
        "meta_ephemeris_type": 0,
        "meta_classification_type": "U",
        "meta_norad_cat_id": 66574,
        "meta_element_set_no": 999,
        "meta_rev_at_epoch": 373,
        "meta_bstar": -0.025825369,
        "meta_mean_motion_dot": -0.01938174,
        "meta_mean_motion_ddot": 0,
        "tle_line1": "1 66574U 25268T   25340.91668981 -.01938174  00000+0 -25825-1 0  9990",
        "tle_line2": "2 66574  42.9999 155.2735 0001603 272.4517  33.5814 15.60627921  3734"
      },
      "geometry": {
        "type": "Point",
        "coordinates": [
          2.664285195602288,
          -25.453275677594007
        ]
      }
    },
    {
      "type": "Feature",
      "properties": {
        "norad_id": 66575,
        "name": "STARLINK-35810",
        "group": "last-30-days",
        "lat": -26.565083655110627,
        "lon": 4.394146933231244,
        "alt_km": 394.4040124116045,
        "timestamp": "2025-12-07T11:27:48.740999+00:00",
        "meta_object_name": "STARLINK-35810",
        "meta_object_id": "2025-268U",
        "meta_epoch": "2025-12-06T22:00:01.999584",
        "meta_mean_motion": 15.6062654,
        "meta_eccentricity": 0.00017235,
        "meta_inclination": 42.9996,
        "meta_ra_of_asc_node": 155.2688,
        "meta_arg_of_pericenter": 271.2356,
        "meta_mean_anomaly": 36.7138,
        "meta_ephemeris_type": 0,
        "meta_classification_type": "U",
        "meta_norad_cat_id": 66575,
        "meta_element_set_no": 999,
        "meta_rev_at_epoch": 373,
        "meta_bstar": -0.025789032,
        "meta_mean_motion_dot": -0.01935767,
        "meta_mean_motion_ddot": 0,
        "tle_line1": "1 66575U 25268U   25340.91668981 -.01935767  00000+0 -25789-1 0  9995",
        "tle_line2": "2 66575  42.9996 155.2688 0001723 271.2356  36.7138 15.60626540  3730"
      },
      "geometry": {
        "type": "Point",
        "coordinates": [
          4.394146933231244,
          -26.565083655110627
        ]
      }
    },
    {
      "type": "Feature",
      "properties": {
        "norad_id": 66576,
        "name": "STARLINK-35814",
        "group": "last-30-days",
        "lat": -27.656422419799565,
        "lon": 6.1591618142232925,
        "alt_km": 394.4229098140595,
        "timestamp": "2025-12-07T11:27:48.741009+00:00",
        "meta_object_name": "STARLINK-35814",
        "meta_object_id": "2025-268V",
        "meta_epoch": "2025-12-06T22:00:01.999584",
        "meta_mean_motion": 15.60629759,
        "meta_eccentricity": 0.000167,
        "meta_inclination": 42.9993,
        "meta_ra_of_asc_node": 155.264,
        "meta_arg_of_pericenter": 269.0754,
        "meta_mean_anomaly": 40.7911,
        "meta_ephemeris_type": 0,
        "meta_classification_type": "U",
        "meta_norad_cat_id": 66576,
        "meta_element_set_no": 999,
        "meta_rev_at_epoch": 373,
        "meta_bstar": -0.025862785,
        "meta_mean_motion_dot": -0.01940817,
        "meta_mean_motion_ddot": 0,
        "tle_line1": "1 66576U 25268V   25340.91668981 -.01940817  00000+0 -25863-1 0  9991",
        "tle_line2": "2 66576  42.9993 155.2640 0001670 269.0754  40.7911 15.60629759  3733"
      },
      "geometry": {
        "type": "Point",
        "coordinates": [
          6.1591618142232925,
          -27.656422419799565
        ]
      }
    },
    {
      "type": "Feature",
      "properties": {
        "norad_id": 66577,
        "name": "STARLINK-35815",
        "group": "last-30-days",
        "lat": -28.724449834314782,
        "lon": 7.958141267018439,
        "alt_km": 394.4380598618018,
        "timestamp": "2025-12-07T11:27:48.741019+00:00",
        "meta_object_name": "STARLINK-35815",
        "meta_object_id": "2025-268W",
        "meta_epoch": "2025-12-06T22:00:01.999584",
        "meta_mean_motion": 15.60630528,
        "meta_eccentricity": 0.00017129,
        "meta_inclination": 42.9995,
        "meta_ra_of_asc_node": 155.2592,
        "meta_arg_of_pericenter": 269.1299,
        "meta_mean_anomaly": 42.6523,
        "meta_ephemeris_type": 0,
        "meta_classification_type": "U",
        "meta_norad_cat_id": 66577,
        "meta_element_set_no": 999,
        "meta_rev_at_epoch": 373,
        "meta_bstar": -0.025863775,
        "meta_mean_motion_dot": -0.01940964,
        "meta_mean_motion_ddot": 0,
        "tle_line1": "1 66577U 25268W   25340.91668981 -.01940964  00000+0 -25864-1 0  9996",
        "tle_line2": "2 66577  42.9995 155.2592 0001712 269.1299  42.6523 15.60630528  3730"
      },
      "geometry": {
        "type": "Point",
        "coordinates": [
          7.958141267018439,
          -28.724449834314782
        ]
      }
    },
    {
      "type": "Feature",
      "properties": {
        "norad_id": 66578,
        "name": "STARLINK-35743",
        "group": "last-30-days",
        "lat": -29.768273133669855,
        "lon": 9.794401837238633,
        "alt_km": 394.485755267332,
        "timestamp": "2025-12-07T11:27:48.741033+00:00",
        "meta_object_name": "STARLINK-35743",
        "meta_object_id": "2025-268X",
        "meta_epoch": "2025-12-06T22:00:01.999584",
        "meta_mean_motion": 15.60629508,
        "meta_eccentricity": 0.00016979,
        "meta_inclination": 42.9995,
        "meta_ra_of_asc_node": 155.2542,
        "meta_arg_of_pericenter": 269.5218,
        "meta_mean_anomaly": 44.1787,
        "meta_ephemeris_type": 0,
        "meta_classification_type": "U",
        "meta_norad_cat_id": 66578,
        "meta_element_set_no": 999,
        "meta_rev_at_epoch": 373,
        "meta_bstar": -0.02585342,
        "meta_mean_motion_dot": -0.01940202,
        "meta_mean_motion_ddot": 0,
        "tle_line1": "1 66578U 25268X   25340.91668981 -.01940202  00000+0 -25853-1 0  9990",
        "tle_line2": "2 66578  42.9995 155.2542 0001697 269.5218  44.1787 15.60629508  3738"
      },
      "geometry": {
        "type": "Point",
        "coordinates": [
          9.794401837238633,
          -29.768273133669855
        ]
      }
    }
  ]
}